start=new Date('2022-08-06T00:00:00.000Z').valueOf();
sats=[{"PERIAPSIS":"348.867","OBJECT_TYPE":"PAYLOAD","MEAN_ANOMALY":"316.7826","MEAN_ELEMENT_THEORY":"SGP4","ECCENTRICITY":"0.00010000","COUNTRY_CODE":"US","MEAN_MOTION_DOT":"-0.00087789","MEAN_MOTION":"15.73277329","REV_AT_EPOCH":"130","CLASSIFICATION_TYPE":"U","BSTAR":"-0.00062557000000","PERIOD":"91.529","TLE_LINE2":"2 53266  53.2190 342.0447 0001000 346.0190 316.7826 15.73277329  1305","OBJECT_NAME":"STARLINK-4058","OBJECT_ID":"2022-086AA","DECAY_DATE":null,"SITE":"AFETR","FILE":"3530042","CENTER_NAME":"EARTH","RCS_SIZE":null,"APOAPSIS":"350.212","INCLINATION":"53.2190","RA_OF_ASC_NODE":"342.0447","MEAN_MOTION_DDOT":"0.0000000000000","REF_FRAME":"TEME","EPOCH":"2022-08-05T22:00:00.999936","SEMIMAJOR_AXIS":"6727.675","ARG_OF_PERICENTER":"346.0190","ELEMENT_SET_NO":"999","EPHEMERIS_TYPE":"0","TLE_LINE1":"1 53266U 22086AA  22217.91667824 -.00087789  00000-0 -62557-3 0  9996","GP_ID":"209659793","TIME_SYSTEM":"UTC","LAUNCH_DATE":"2022-07-24","NORAD_CAT_ID":"53266"},{"ELEMENT_SET_NO":"999","ARG_OF_PERICENTER":"339.1376","LAUNCH_DATE":"2022-07-24","NORAD_CAT_ID":"53267","TIME_SYSTEM":"UTC","GP_ID":"209660305","TLE_LINE1":"1 53267U 22086AB  22217.91667824  .00019128  00000-0  14045-3 0  9996","EPHEMERIS_TYPE":"0","MEAN_MOTION_DDOT":"0.0000000000000","RA_OF_ASC_NODE":"342.0405","INCLINATION":"53.2191","APOAPSIS":"350.679","RCS_SIZE":null,"CENTER_NAME":"EARTH","FILE":"3530042","SEMIMAJOR_AXIS":"6727.922","EPOCH":"2022-08-05T22:00:00.999936","REF_FRAME":"TEME","BSTAR":"0.00014045000000","CLASSIFICATION_TYPE":"U","MEAN_MOTION":"15.73190713","REV_AT_EPOCH":"130","DECAY_DATE":null,"SITE":"AFETR","OBJECT_ID":"2022-086AB","OBJECT_NAME":"STARLINK-4060","TLE_LINE2":"2 53267  53.2191 342.0405 0001327 339.1376 326.1054 15.73190713  1301","PERIOD":"91.534","COUNTRY_CODE":"US","ECCENTRICITY":"0.00013270","MEAN_ANOMALY":"326.1054","MEAN_ELEMENT_THEORY":"SGP4","OBJECT_TYPE":"PAYLOAD","PERIAPSIS":"348.894","MEAN_MOTION_DOT":"0.00019128"},{"ARG_OF_PERICENTER":"321.4044","ELEMENT_SET_NO":"999","EPHEMERIS_TYPE":"0","GP_ID":"209659663","TLE_LINE1":"1 53268U 22086AC  22217.91667824  .00016468  00000-0  12162-3 0  9999","TIME_SYSTEM":"UTC","NORAD_CAT_ID":"53268","LAUNCH_DATE":"2022-07-24","RCS_SIZE":null,"FILE":"3530042","CENTER_NAME":"EARTH","RA_OF_ASC_NODE":"342.0415","MEAN_MOTION_DDOT":"0.0000000000000","APOAPSIS":"350.691","INCLINATION":"53.2188","REF_FRAME":"TEME","EPOCH":"2022-08-05T22:00:00.999936","SEMIMAJOR_AXIS":"6727.949","MEAN_MOTION":"15.73181133","REV_AT_EPOCH":"130","CLASSIFICATION_TYPE":"U","BSTAR":"0.00012162000000","OBJECT_NAME":"STARLINK-4109","OBJECT_ID":"2022-086AC","PERIOD":"91.534","TLE_LINE2":"2 53268  53.2188 342.0415 0001304 321.4044 342.6305 15.73181133  1308","SITE":"AFETR","DECAY_DATE":null,"OBJECT_TYPE":"PAYLOAD","PERIAPSIS":"348.937","MEAN_ANOMALY":"342.6305","MEAN_ELEMENT_THEORY":"SGP4","ECCENTRICITY":"0.00013040","COUNTRY_CODE":"US","MEAN_MOTION_DOT":"0.00016468"},{"MEAN_MOTION_DDOT":"0.0000000000000","RA_OF_ASC_NODE":"342.0385","INCLINATION":"53.2191","APOAPSIS":"350.317","RCS_SIZE":null,"FILE":"3530042","CENTER_NAME":"EARTH","SEMIMAJOR_AXIS":"6727.893","EPOCH":"2022-08-05T22:00:00.999936","REF_FRAME":"TEME","ELEMENT_SET_NO":"999","ARG_OF_PERICENTER":"17.2630","NORAD_CAT_ID":"53269","LAUNCH_DATE":"2022-07-24","TIME_SYSTEM":"UTC","TLE_LINE1":"1 53269U 22086AD  22217.91667824  .00018390  00000-0  13515-3 0  9999","GP_ID":"209660565","EPHEMERIS_TYPE":"0","COUNTRY_CODE":"US","ECCENTRICITY":"0.00008310","MEAN_ANOMALY":"289.0895","MEAN_ELEMENT_THEORY":"SGP4","OBJECT_TYPE":"PAYLOAD","PERIAPSIS":"349.199","MEAN_MOTION_DOT":"0.00018390","BSTAR":"0.00013515000000","CLASSIFICATION_TYPE":"U","MEAN_MOTION":"15.73200762","REV_AT_EPOCH":"130","DECAY_DATE":null,"SITE":"AFETR","OBJECT_NAME":"STARLINK-4057","OBJECT_ID":"2022-086AD","TLE_LINE2":"2 53269  53.2191 342.0385 0000831  17.2630 289.0895 15.73200762  1302","PERIOD":"91.533"},{"ELEMENT_SET_NO":"999","ARG_OF_PERICENTER":"83.5353","TIME_SYSTEM":"UTC","LAUNCH_DATE":"2022-07-24","NORAD_CAT_ID":"53270","EPHEMERIS_TYPE":"0","TLE_LINE1":"1 53270U 22086AE  22217.91667824  .00370850  72537-4  44865-3 0  9993","GP_ID":"209660184","MEAN_MOTION_DDOT":"0.0000725370000","RA_OF_ASC_NODE":"340.6624","APOAPSIS":"307.169","INCLINATION":"53.2185","RCS_SIZE":null,"CENTER_NAME":"EARTH","FILE":"3530042","EPOCH":"2022-08-05T22:00:00.999936","SEMIMAJOR_AXIS":"6643.113","REF_FRAME":"TEME","CLASSIFICATION_TYPE":"U","BSTAR":"0.00044865000000","REV_AT_EPOCH":"130","MEAN_MOTION":"16.03412800","SITE":"AFETR","DECAY_DATE":null,"OBJECT_NAME":"STARLINK-4113","OBJECT_ID":"2022-086AE","PERIOD":"89.808","TLE_LINE2":"2 53270  53.2185 340.6624 0063511  83.5353 167.1141 16.03412800  1301","MEAN_ELEMENT_THEORY":"SGP4","MEAN_ANOMALY":"167.1141","COUNTRY_CODE":"US","ECCENTRICITY":"0.00635110","OBJECT_TYPE":"PAYLOAD","PERIAPSIS":"222.786","MEAN_MOTION_DOT":"0.00370850"},{"MEAN_MOTION_DOT":"-0.00105114","PERIAPSIS":"348.679","OBJECT_TYPE":"PAYLOAD","ECCENTRICITY":"0.00011570","COUNTRY_CODE":"US","MEAN_ELEMENT_THEORY":"SGP4","MEAN_ANOMALY":"328.7086","TLE_LINE2":"2 53271  53.2190 342.0358 0001157 338.7695 328.7086 15.73306213  1309","PERIOD":"91.527","OBJECT_NAME":"STARLINK-4069","OBJECT_ID":"2022-086AF","DECAY_DATE":null,"SITE":"AFETR","REV_AT_EPOCH":"130","MEAN_MOTION":"15.73306213","BSTAR":"-0.00075049000000","CLASSIFICATION_TYPE":"U","REF_FRAME":"TEME","SEMIMAJOR_AXIS":"6727.592","EPOCH":"2022-08-05T22:00:00.999936","FILE":"3530042","CENTER_NAME":"EARTH","RCS_SIZE":null,"INCLINATION":"53.2190","APOAPSIS":"350.236","RA_OF_ASC_NODE":"342.0358","MEAN_MOTION_DDOT":"0.0000000000000","TLE_LINE1":"1 53271U 22086AF  22217.91667824 -.00105114  00000-0 -75049-3 0  9995","GP_ID":"209659914","EPHEMERIS_TYPE":"0","LAUNCH_DATE":"2022-07-24","NORAD_CAT_ID":"53271","TIME_SYSTEM":"UTC","ARG_OF_PERICENTER":"338.7695","ELEMENT_SET_NO":"999"},{"MEAN_MOTION_DOT":"-0.00078137","ECCENTRICITY":"0.00016460","COUNTRY_CODE":"US","MEAN_ELEMENT_THEORY":"SGP4","MEAN_ANOMALY":"261.6019","PERIAPSIS":"348.518","OBJECT_TYPE":"PAYLOAD","DECAY_DATE":null,"SITE":"AFETR","TLE_LINE2":"2 53272  53.2190 342.0387 0001646  44.2199 261.6019 15.73247418  1305","PERIOD":"91.530","OBJECT_ID":"2022-086AG","OBJECT_NAME":"STARLINK-4122","BSTAR":"-0.00055633000000","CLASSIFICATION_TYPE":"U","MEAN_MOTION":"15.73247418","REV_AT_EPOCH":"130","SEMIMAJOR_AXIS":"6727.760","EPOCH":"2022-08-05T22:00:00.999936","REF_FRAME":"TEME","INCLINATION":"53.2190","APOAPSIS":"350.732","RA_OF_ASC_NODE":"342.0387","MEAN_MOTION_DDOT":"0.0000000000000","CENTER_NAME":"EARTH","FILE":"3530042","RCS_SIZE":null,"LAUNCH_DATE":"2022-07-24","NORAD_CAT_ID":"53272","TIME_SYSTEM":"UTC","GP_ID":"209660055","TLE_LINE1":"1 53272U 22086AG  22217.91667824 -.00078137  00000-0 -55633-3 0  9997","EPHEMERIS_TYPE":"0","ELEMENT_SET_NO":"999","ARG_OF_PERICENTER":"44.2199"},{"BSTAR":"0.00014050000000","CLASSIFICATION_TYPE":"U","REV_AT_EPOCH":"130","MEAN_MOTION":"15.73222778","SITE":"AFETR","DECAY_DATE":null,"TLE_LINE2":"2 53273  53.2188 342.0328 0001458  62.8599 245.9096 15.73222778  1301","PERIOD":"91.532","OBJECT_ID":"2022-086AH","OBJECT_NAME":"STARLINK-4051","ECCENTRICITY":"0.00014580","COUNTRY_CODE":"US","MEAN_ANOMALY":"245.9096","MEAN_ELEMENT_THEORY":"SGP4","PERIAPSIS":"348.714","OBJECT_TYPE":"PAYLOAD","MEAN_MOTION_DOT":"0.00019162","ELEMENT_SET_NO":"999","ARG_OF_PERICENTER":"62.8599","LAUNCH_DATE":"2022-07-24","NORAD_CAT_ID":"53273","TIME_SYSTEM":"UTC","GP_ID":"209660436","TLE_LINE1":"1 53273U 22086AH  22217.91667824  .00019162  00000-0  14050-3 0  9997","EPHEMERIS_TYPE":"0","INCLINATION":"53.2188","APOAPSIS":"350.676","MEAN_MOTION_DDOT":"0.0000000000000","RA_OF_ASC_NODE":"342.0328","FILE":"3530042","CENTER_NAME":"EARTH","RCS_SIZE":null,"SEMIMAJOR_AXIS":"6727.830","EPOCH":"2022-08-05T22:00:00.999936","REF_FRAME":"TEME"},{"RA_OF_ASC_NODE":"342.0361","MEAN_MOTION_DDOT":"0.0000000000000","INCLINATION":"53.2189","APOAPSIS":"350.397","RCS_SIZE":null,"FILE":"3530042","CENTER_NAME":"EARTH","SEMIMAJOR_AXIS":"6727.688","EPOCH":"2022-08-05T22:00:00.999936","REF_FRAME":"TEME","ELEMENT_SET_NO":"999","ARG_OF_PERICENTER":"48.7661","LAUNCH_DATE":"2022-07-24","NORAD_CAT_ID":"53274","TIME_SYSTEM":"UTC","GP_ID":"209659794","TLE_LINE1":"1 53274U 22086AJ  22217.91667824 -.00065505  00000-0 -46450-3 0  9991","EPHEMERIS_TYPE":"0","COUNTRY_CODE":"US","ECCENTRICITY":"0.00012540","MEAN_ANOMALY":"258.1555","MEAN_ELEMENT_THEORY":"SGP4","OBJECT_TYPE":"PAYLOAD","PERIAPSIS":"348.709","MEAN_MOTION_DOT":"-0.00065505","BSTAR":"-0.00046450000000","CLASSIFICATION_TYPE":"U","MEAN_MOTION":"15.73272626","REV_AT_EPOCH":"130","DECAY_DATE":null,"SITE":"AFETR","OBJECT_ID":"2022-086AJ","OBJECT_NAME":"STARLINK-4050","TLE_LINE2":"2 53274  53.2189 342.0361 0001254  48.7661 258.1555 15.73272626  1300","PERIOD":"91.529"},{"ELEMENT_SET_NO":"999","ARG_OF_PERICENTER":"304.1611","TIME_SYSTEM":"UTC","LAUNCH_DATE":"2022-07-24","NORAD_CAT_ID":"53275","EPHEMERIS_TYPE":"0","GP_ID":"209660306","TLE_LINE1":"1 53275U 22086AK  22217.91667824  .00015337  00000-0  11350-3 0  9999","RA_OF_ASC_NODE":"342.0313","MEAN_MOTION_DDOT":"0.0000000000000","APOAPSIS":"351.269","INCLINATION":"53.2189","RCS_SIZE":null,"FILE":"3530042","CENTER_NAME":"EARTH","EPOCH":"2022-08-05T22:00:00.999936","SEMIMAJOR_AXIS":"6727.898","REF_FRAME":"TEME","CLASSIFICATION_TYPE":"U","BSTAR":"0.00011350000000","REV_AT_EPOCH":"130","MEAN_MOTION":"15.73198985","DECAY_DATE":null,"SITE":"AFETR","OBJECT_ID":"2022-086AK","OBJECT_NAME":"STARLINK-4179","PERIOD":"91.533","TLE_LINE2":"2 53275  53.2189 342.0313 0002238 304.1611   5.2464 15.73198985  1300","MEAN_ELEMENT_THEORY":"SGP4","MEAN_ANOMALY":"5.2464","ECCENTRICITY":"0.00022380","COUNTRY_CODE":"US","OBJECT_TYPE":"PAYLOAD","PERIAPSIS":"348.257","MEAN_MOTION_DOT":"0.00015337"}];
